SENTINEL-6              
1 46984U 20086A   24147.68267181 -.00000031  00000+0  13053-3 0  9993
2 46984  66.0418 255.9328 0007839 270.2734  89.7383 12.80931262164197
